NORAD_CAT_ID,OBJECT_NAME,OBJECT_TYPE,EPOCH,MEAN_MOTION,ECCENTRICITY,INCLINATION,RA_OF_ASC_NODE,ARG_OF_PERICENTER,MEAN_ANOMALY,BSTAR,MEAN_MOTION_DOT,MEAN_MOTION_DDOT,TLE_LINE0,TLE_LINE1,TLE_LINE2,SEMIMAJOR_AXIS,PERIOD,APOGEE,PERIGEE,DECAYED
53280.0,STARLINK-4169,PAYLOAD,2024-04-02 14:57:14,15.08853972,0.0001379,53.2168,68.4483,89.2053,270.9097,0.00036857,5.585e-05,0.0,0 STARLINK-4169,1 53280U 22086AQ  24093.62308227  .00005585  00000-0  36857-3 0  9999,2 53280  53.2168  68.4483 0001379  89.2053 270.9097 15.08853972 95078,6917.838,95.437,540.657,538.749,0.0
53280.0,STARLINK-4169,PAYLOAD,2024-04-02 22:54:10,15.08834854,0.0001419,53.2167,66.9616,85.0943,275.0211,-2.3649e-06,-3.26e-06,0.0,0 STARLINK-4169,1 53280U 22086AQ  24093.95428951 -.00000326  00000-0 -23649-5 0  9999,2 53280  53.2167  66.9616 0001419  85.0943 275.0211 15.08834854 95291,6917.896,95.438,540.743,538.779,0.0
53280.0,STARLINK-4169,PAYLOAD,2024-04-03 05:15:43,15.08840014,0.0001446,53.217,65.7723,88.3366,271.7792,7.6332e-05,9.27e-06,0.0,0 STARLINK-4169,1 53280U 22086AQ  24094.21924779  .00000927  00000-0  76332-4 0  9999,2 53280  53.2170  65.7723 0001446  88.3366 271.7792 15.08840014 95164,6917.88,95.438,540.746,538.745,0.0
53280.0,STARLINK-4169,PAYLOAD,2024-04-03 14:48:01,15.0884404,0.0001446,53.2169,63.9892,91.5524,268.5634,0.00012,1.623e-05,0.0,0 STARLINK-4169,1 53280U 22086AQ  24094.61668633  .00001623  00000-0  12000-3 0  9992,2 53280  53.2169  63.9892 0001446  91.5524 268.5634 15.08844040 95398,6917.868,95.437,540.733,538.733,0.0
53280.0,STARLINK-4169,PAYLOAD,2024-04-04 06:41:53,15.08841649,0.000151,53.2171,61.016,95.4883,264.6282,5.0778e-05,5.2e-06,0.0,0 STARLINK-4169,1 53280U 22086AQ  24095.27908764  .00000520  00000-0  50778-4 0  9997,2 53280  53.2171  61.0160 0001510  95.4883 264.6282 15.08841649 95322,6917.875,95.437,540.785,538.696,0.0
53280.0,STARLINK-4169,PAYLOAD,2024-04-04 14:38:48,15.0884859,0.0001486,53.2175,59.5288,86.7072,273.409,0.00021159,3.082e-05,0.0,0 STARLINK-4169,1 53280U 22086AQ  24095.61028456  .00003082  00000-0  21159-3 0  9992,2 53280  53.2175  59.5288 0001486  86.7072 273.4090 15.08848590 95545,6917.854,95.437,540.747,538.691,0.0
53280.0,STARLINK-4169,PAYLOAD,2024-04-04 21:00:21,15.08847379,0.0001837,53.2168,58.3392,84.3627,275.7575,0.00030034,4.496e-05,0.0,0 STARLINK-4169,1 53280U 22086AQ  24095.87524644  .00004496  00000-0  30034-3 0  9992,2 53280  53.2168  58.3392 0001837  84.3627 275.7575 15.08847379 95581,6917.858,95.437,540.994,538.452,0.0
53280.0,STARLINK-4169,PAYLOAD,2024-04-05 14:29:35,15.08852295,0.0001513,53.2178,55.0681,87.5871,272.5294,0.00017791,2.546e-05,0.0,0 STARLINK-4169,1 53280U 22086AQ  24096.60388183  .00002546  00000-0  17791-3 0  9999,2 53280  53.2178  55.0681 0001513  87.5871 272.5294 15.08852295 95692,6917.843,95.437,540.754,538.661,0.0
53280.0,STARLINK-4169,PAYLOAD,2024-04-05 20:51:08,15.08847955,0.0001605,53.2177,53.8794,88.2457,271.8719,0.00020834,3.03e-05,0.0,0 STARLINK-4169,1 53280U 22086AQ  24096.86884414  .00003030  00000-0  20834-3 0  9996,2 53280  53.2177  53.8794 0001605  88.2457 271.8719 15.08847955 95569,6917.856,95.437,540.831,538.611,0.0
53280.0,STARLINK-4169,PAYLOAD,2024-04-06 03:12:41,15.08837016,0.0001215,53.218,52.6888,91.2859,268.8273,3.2616e-05,2.31e-06,0.0,0 STARLINK-4169,1 53280U 22086AQ  24097.13380925  .00000231  00000-0  32616-4 0  9997,2 53280  53.2180  52.6888 0001215  91.2859 268.8273 15.08837016 95604,6917.89,95.438,540.595,538.914,0.0
53280.0,STARLINK-4169,PAYLOAD,2024-04-06 14:20:22,15.08849153,0.0001313,53.2163,50.6052,95.4641,264.6501,0.00020628,2.997e-05,0.0,0 STARLINK-4169,1 53280U 22086AQ  24097.59748253  .00002997  00000-0  20628-3 0  9999,2 53280  53.2163  50.6052 0001313  95.4641 264.6501 15.08849153 95849,6917.852,95.437,540.626,538.809,0.0
53280.0,STARLINK-4169,PAYLOAD,2024-04-06 20:41:55,15.08844061,0.0001584,53.2167,49.4156,99.9591,260.1579,0.00016904,2.404e-05,0.0,0 STARLINK-4169,1 53280U 22086AQ  24097.86244564  .00002404  00000-0  16904-3 0  9990,2 53280  53.2167  49.4156 0001584  99.9591 260.1579 15.08844061 95880,6917.868,95.437,540.829,538.637,0.0
53280.0,STARLINK-4169,PAYLOAD,2024-04-07 06:14:14,15.0883908,0.0001567,53.2181,47.631,104.5866,255.53,1.6985e-05,-1.8e-07,0.0,0 STARLINK-4169,1 53280U 22086AQ  24098.25988906 -.00000018  00000-0  16985-4 0  9999,2 53280  53.2181  47.6310 0001567 104.5866 255.5300 15.08839080 95770,6917.883,95.438,540.832,538.664,0.0
53280.0,STARLINK-4169,PAYLOAD,2024-04-07 14:11:09,15.08842011,0.0001441,53.2181,46.145,96.0507,264.0649,7.6038e-05,9.22e-06,0.0,0 STARLINK-4169,1 53280U 22086AQ  24098.59108778  .00000922  00000-0  76038-4 0  9995,2 53280  53.2181  46.1450 0001441  96.0507 264.0649 15.08842011 95990,6917.874,95.437,540.736,538.742,0.0
53280.0,STARLINK-4169,PAYLOAD,2024-04-08 06:05:01,15.08836917,0.0001458,53.218,43.1721,96.7921,263.3237,9.3605e-05,1.202e-05,0.0,0 STARLINK-4169,1 53280U 22086AQ  24099.25349265  .00001202  00000-0  93605-4 0  9998,2 53280  53.2180  43.1721 0001458  96.7921 263.3237 15.08836917 96097,6917.89,95.438,540.763,538.746,0.0
53280.0,STARLINK-4169,PAYLOAD,2024-04-08 23:34:16,15.08840604,0.0001487,53.2181,39.9014,93.7328,266.3834,0.00017775,2.542e-05,0.0,0 STARLINK-4169,1 53280U 22086AQ  24099.98213196  .00002542  00000-0  17775-3 0  9992,2 53280  53.2181  39.9014 0001487  93.7328 266.3834 15.08840604 96203,6917.879,95.438,540.772,538.715,0.0
53280.0,STARLINK-4169,PAYLOAD,2024-04-09 02:45:02,15.08841293,0.000146,53.2183,39.3071,92.5015,267.6145,0.00017992,2.577e-05,0.0,0 STARLINK-4169,1 53280U 22086AQ  24100.11461185  .00002577  00000-0  17992-3 0  9992,2 53280  53.2183  39.3071 0001460  92.5015 267.6145 15.08841293 96050,6917.876,95.437,540.751,538.731,0.0
53280.0,STARLINK-4169,PAYLOAD,2024-04-09 12:17:20,15.08848174,0.0001419,53.2188,37.5235,91.7053,268.4102,0.00020084,2.911e-05,0.0,0 STARLINK-4169,1 53280U 22086AQ  24100.51204761  .00002911  00000-0  20084-3 0  9999,2 53280  53.2188  37.5235 0001419  91.7053 268.4102 15.08848174 96286,6917.855,95.437,540.702,538.739,0.0
53280.0,STARLINK-4169,PAYLOAD,2024-04-10 02:35:49,15.08831844,0.0001337,53.2204,34.8524,82.3314,277.783,0.00012163,1.648e-05,0.0,0 STARLINK-4169,1 53280U 22086AQ  24101.10821719  .00001648  00000-0  12163-3 0  9998,2 53280  53.2204  34.8524 0001337  82.3314 277.7830 15.08831844 96200,6917.905,95.438,540.695,538.845,0.0
53280.0,STARLINK-4169,PAYLOAD,2024-04-10 12:08:07,15.08848226,0.0001481,53.2208,33.0671,95.4402,264.6759,7.371e-05,8.86e-06,0.0,0 STARLINK-4169,1 53280U 22086AQ  24101.50564673  .00000886  00000-0  73710-4 0  9994,2 53280  53.2208  33.0671 0001481  95.4402 264.6759 15.08848226 96264,6917.855,95.437,540.745,538.696,0.0
53280.0,STARLINK-4169,PAYLOAD,2024-04-10 23:15:50,15.08832574,0.0001752,53.2207,30.9883,118.1663,241.9507,5.5542e-06,-2e-06,0.0,0 STARLINK-4169,1 53280U 22086AQ  24101.96933985 -.00000200  00000-0  55542-5 0  9995,2 53280  53.2207  30.9883 0001752 118.1663 241.9507 15.08832574 96502,6917.903,95.438,540.98,538.556,0.0
53280.0,STARLINK-4169,PAYLOAD,2024-04-11 02:26:37,15.08826159,0.000171,53.2212,30.3924,114.3532,245.7639,6.727e-05,7.82e-06,0.0,0 STARLINK-4169,1 53280U 22086AQ  24102.10182254  .00000782  00000-0  67270-4 0  9991,2 53280  53.2212  30.3924 0001710 114.3532 245.7639 15.08826159 96358,6917.923,95.438,540.971,538.605,0.0
53280.0,STARLINK-4169,PAYLOAD,2024-04-11 11:58:55,15.08847455,0.0001411,53.2205,28.6047,95.8115,264.3038,8.1004e-05,1.002e-05,0.0,0 STARLINK-4169,1 53280U 22086AQ  24102.49924929  .00001002  00000-0  81004-4 0  9993,2 53280  53.2205  28.6047 0001411  95.8115 264.3038 15.08847455 96413,6917.858,95.437,540.699,538.746,0.0
53280.0,STARLINK-4169,PAYLOAD,2024-04-12 03:52:47,15.08836753,0.0001452,53.2201,25.6307,92.8623,267.2535,8.3343e-06,-1.55e-06,0.0,0 STARLINK-4169,1 53280U 22086AQ  24103.16166022 -.00000155  00000-0  83343-5 0  9998,2 53280  53.2201  25.6307 0001452  92.8623 267.2535 15.08836753 96515,6917.89,95.438,540.76,538.751,0.0
53280.0,STARLINK-4169,PAYLOAD,2024-04-12 22:57:24,15.08839091,0.0001499,53.2202,22.0639,100.3819,259.7342,0.00016121,2.279e-05,0.0,0 STARLINK-4169,1 53280U 22086AQ  24103.95653594  .00002279  00000-0  16121-3 0  9996,2 53280  53.2202  22.0639 0001499 100.3819 259.7342 15.08839091 96800,6917.883,95.438,540.785,538.711,0.0
53280.0,STARLINK-4169,PAYLOAD,2024-04-13 02:08:10,15.08842175,0.0001412,53.2199,21.4674,94.5749,265.5405,0.00012874,1.762e-05,0.0,0 STARLINK-4169,1 53280U 22086AQ  24104.08901573  .00001762  00000-0  12874-3 0  9991,2 53280  53.2199  21.4674 0001412  94.5749 265.5405 15.08842175 96653,6917.874,95.437,540.716,538.762,0.0
53280.0,STARLINK-4169,PAYLOAD,2024-04-14 00:23:35,15.08837233,0.000133,53.2197,17.2998,83.0018,277.1125,3.2445e-05,2.28e-06,0.0,0 STARLINK-4169,1 53280U 22086AQ  24105.01638380  .00000228  00000-0  32445-4 0  9991,2 53280  53.2197  17.2998 0001330  83.0018 277.1125 15.08837233 96796,6917.889,95.438,540.674,538.834,0.0
53280.0,STARLINK-4169,PAYLOAD,2024-04-14 22:38:58,15.08854551,0.000131,53.2196,13.1357,101.3632,258.7507,0.00014796,2.069e-05,0.0,0 STARLINK-4169,1 53280U 22086AQ  24105.94373325  .00002069  00000-0  14796-3 0  9991,2 53280  53.2196  13.1357 0001310 101.3632 258.7507 15.08854551 97100,6917.836,95.437,540.607,538.795,0.0
53280.0,STARLINK-4169,PAYLOAD,2024-04-15 00:14:21,15.08853345,0.0001359,53.2198,12.8442,84.2729,275.8418,0.00019663,2.844e-05,0.0,0 STARLINK-4169,1 53280U 22086AQ  24106.00997470  .00002844  00000-0  19663-3 0  9991,2 53280  53.2198  12.8442 0001359  84.2729 275.8418 15.08853345 96944,6917.84,95.437,540.645,538.764,0.0
53280.0,STARLINK-4169,PAYLOAD,2024-04-15 20:54:23,15.08776617,0.0001671,53.2203,8.9733,110.1736,249.9436,0.0011709,0.00018364,0.0,0 STARLINK-4169,1 53280U 22086AQ  24106.87110269  .00018364  00000-0  11709-2 0  9995,2 53280  53.2203   8.9733 0001671 110.1736 249.9436 15.08776617 97077,6918.074,95.442,541.095,538.783,0.0
